{
"type": "FeatureCollection",
"name": "AOI",
"crs": { "type": "name", "properties": { "name": "urn:ogc:def:crs:OGC:1.3:CRS84" } },
"features": [
{"type":"Feature","properties":{},"geometry":{"type":"Polygon","coordinates":[[[91.927783391605544,21.465015573635824],[91.948176187670384,21.472314766080657],[92.064258257577904,21.308725379294977],[92.079945023781605,21.174211888745852],[92.203870476790996,21.019077190680868],[92.319952546698488,20.784605925168076],[92.367012845309645,20.718595015182448],[92.318383870078122,20.717127778929079],[92.12229929253165,21.01761288496192],[91.996805162901921,21.177137399260204],[91.927783391605544,21.465015573635824]]]}}
]
}
