{
"type": "FeatureCollection",
"name": "Fig4_hotspot_AOIs",
"crs": { "type": "name", "properties": { "name": "urn:ogc:def:crs:EPSG::32646" } },
"features": [
{ "type": "Feature", "properties": { "fid": 1, "zone": "A1", "type": "Accretion", "note": null }, "geometry": { "type": "Polygon", "coordinates": [ [ [ 390010.454274426854681, 2373819.753799269907176 ], [ 390880.055624522792641, 2372301.013413186650723 ], [ 392043.6067267638864, 2372925.656636495143175 ], [ 391112.765844970999751, 2374346.413771863095462 ], [ 390010.454274426854681, 2373819.753799269907176 ] ] ] } },
{ "type": "Feature", "properties": { "fid": 2, "zone": "A2", "type": "Accretion", "note": null }, "geometry": { "type": "Polygon", "coordinates": [ [ [ 399931.258409324567765, 2356274.627968107350171 ], [ 400329.315365354414098, 2356390.983078331686556 ], [ 401156.049043262552004, 2354425.194110861048102 ], [ 400800.859759420505725, 2354357.83062599459663 ], [ 399931.258409324567765, 2356274.627968107350171 ] ] ] } },
{ "type": "Feature", "properties": { "fid": 3, "zone": "A3", "type": "Accretion", "note": null }, "geometry": { "type": "Polygon", "coordinates": [ [ [ 400709.000461875111796, 2354137.368311885744333 ], [ 401419.379029559146147, 2354174.112030904274434 ], [ 401431.626935898559168, 2351308.101947489194572 ], [ 400794.735806250770111, 2351320.349853828549385 ], [ 400709.000461875111796, 2354137.368311885744333 ] ] ] } },
{ "type": "Feature", "properties": { "fid": 4, "zone": "E1", "type": "Erosion", "note": null }, "geometry": { "type": "Polygon", "coordinates": [ [ [ 426086.662397070089355, 2298887.062814943958074 ], [ 427752.377659225778189, 2299719.92044602194801 ], [ 431561.476530772866681, 2294343.089563034009188 ], [ 429969.248706653539557, 2293289.769617847632617 ], [ 426086.662397070089355, 2298887.062814943958074 ] ] ] } },
{ "type": "Feature", "properties": { "fid": 5, "zone": "E2", "type": "Erosion", "note": null }, "geometry": { "type": "Polygon", "coordinates": [ [ [ 425082.334077240899205, 2302047.02265050355345 ], [ 426368.364242875773925, 2302524.690997739322484 ], [ 427470.675813419977203, 2299977.126479148399085 ], [ 426221.38936680322513, 2299548.449757270049304 ], [ 425082.334077240899205, 2302047.02265050355345 ] ] ] } },
{ "type": "Feature", "properties": { "fid": 6, "zone": "E3", "type": "Erosion", "note": null }, "geometry": { "type": "Polygon", "coordinates": [ [ [ 391045.402360104373656, 2372154.038537112530321 ], [ 391866.012084842834156, 2372607.211071669589728 ], [ 392698.869715920649469, 2371149.710217283573002 ], [ 391866.012084842834156, 2370733.281401744578034 ], [ 391045.402360104373656, 2372154.038537112530321 ] ] ] } }
]
}
